GAOFEN 1                
1 39150U 13018A   23144.52118635  .00000852  00000+0  12965-3 0  9996
2 39150  98.0307 214.9921 0019833 266.3289  93.5653 14.76460272543052
VNREDSAT 1              
1 39160U 13021B   23144.52269198  .00000805  00000+0  16611-3 0  9992
2 39160  98.0404 217.0912 0001057  97.4882 262.6440 14.62987369536484
ARIRANG-5 (KOMPSAT-5)   
1 39227U 13042A   23144.49744537  .00001536  00000+0  11408-3 0  9991
2 39227  97.6200 330.8578 0001603  49.4943 310.6423 15.04499324535560
SKYSAT-A                
1 39418U 13066C   23144.17801398  .00003132  00000+0  24190-3 0  9999
2 39418  97.5406 210.8475 0029389 184.1319 175.9667 15.01922544519754
DUBAISAT-2              
1 39419U 13066D   23144.50188310  .00002380  00000+0  21215-3 0  9998
2 39419  97.4143 164.0049 0012344 204.9650 155.0977 14.96844421518179
GPM-CORE                
1 39574U 14009C   23143.92678517  .00015661  00000+0  22125-3 0  9993
2 39574  64.9937 109.1188 0013427 270.4295  89.5313 15.56640642524584
SENTINEL-1A             
1 39634U 14016A   23144.52769535  .00000247  00000+0  62162-4 0  9996
2 39634  98.1824 152.2043 0001376  90.1064 270.0293 14.59200602486766
KAZEOSAT 1              
1 39731U 14024A   23144.46286607  .00000321  00000+0  11114-3 0  9993
2 39731  98.4292 221.4708 0001194  91.3963 268.7363 14.41993758477238
ALOS-2                  
1 39766U 14029A   23144.54496006  .00002148  00000+0  29439-3 0  9999
2 39766  97.9220 241.7762 0001603  98.4677 261.6716 14.79478742486068
KAZEOSAT 2              
1 40010U 14033A   23144.52347317  .00000704  00000+0  94734-4 0  9993
2 40010  97.6759  21.8189 0014178  46.8390 313.4006 14.82102754482959
HODOYOSHI-4             
1 40011U 14033B   23144.54213324  .00001449  00000+0  18504-3 0  9993
2 40011  97.6294   7.8679 0027174  43.0693 317.2641 14.82637345482605
DEIMOS-2                
1 40013U 14033D   23144.53091713  .00001896  00000+0  21966-3 0  9992
2 40013  97.7263  37.5216 0002659  83.2393 276.9125 14.86617997483845
HODOYOSHI-3             
1 40015U 14033F   23143.79788220  .00001211  00000+0  16600-3 0  9997
2 40015  97.6101 345.2334 0037768  72.9559 287.5786 14.79658748481621
SPOT 7                  
1 40053U 14034A   23144.44646358  .00000677  00000+0  15512-3 0  9994
2 40053  98.2046 211.9141 0001644  99.0047 261.1338 14.58652584473798
SKYSAT-B                
1 40072U 14037D   23143.64453788  .00001260  00000+0  16395-3 0  9991
2 40072  98.3633  33.2049 0005152 312.0191  48.0581 14.82559095479631
WORLDVIEW-3 (WV-3)      
1 40115U 14048A   23144.17375534  .00001441  00000+0  17423-3 0  9996
2 40115  97.8247 218.6818 0005148  99.2854 260.8943 14.85210972475714
GAOFEN 2                
1 40118U 14049A   23144.50022306  .00001276  00000+0  17242-3 0  9998
2 40118  97.7151 206.0845 0005234 274.7409  85.3206 14.80681188473562
YAOGAN 21               
1 40143U 14053A   23144.51903117  .00008949  00000+0  37917-3 0  9995
2 40143  97.3041 209.0226 0012758 104.4510 255.8143 15.23300189484485
YAOGAN 22               
1 40275U 14063A   23143.84665510  .00000005  00000+0  13445-3 0  9994
2 40275 100.6096 269.2138 0006310 190.8090 169.2887 13.15458161412508
ASNARO                  
1 40298U 14070A   23144.52440961  .00010162  00000+0  48441-3 0  9993
2 40298  97.4393 227.3470 0005152 179.1520 180.9724 15.19287393473994
HODOYOSHI-1             
1 40299U 14070B   23144.48514112  .00009605  00000+0  30102-3 0  9994
2 40299  97.1945 207.7719 0010484  12.1545 347.9949 15.33224452475180
QSAT-EOS                
1 40301U 14070D   23144.47922405  .00040931  00000+0  52534-3 0  9995
2 40301  97.1552 213.3080 0009661 303.4363  56.5969 15.58972104476144
YAOGAN 23               
1 40305U 14071A   23144.52174878  .00011491  00000+0  40288-3 0  9991
2 40305  97.6522 107.1082 0002730  85.3353 274.8198 15.29618651472515
YAOGAN 24               
1 40310U 14072A   23144.51736860  .00001050  00000+0  15864-3 0  9994
2 40310  98.0118 266.3092 0013766 260.4389  99.5266 14.76312909458556
CBERS 4                 
1 40336U 14079A   23144.47699364  .00000186  00000+0  79520-4 0  9990
2 40336  98.4440 216.9394 0001481 107.5812 252.5536 14.35462647443336
RESURS P2               
1 40360U 14087A   23144.46619545  .00011610  00000+0  26316-3 0  9996
2 40360  97.1804 228.2870 0006387 299.3468  60.7142 15.43221055470715
YAOGAN 26               
1 40362U 14088A   23144.52509894  .00009359  00000+0  39588-3 0  9993
2 40362  97.0960 182.1853 0009733  18.8032 341.3564 15.23363972467969
SMAP                    
1 40376U 15003A   23144.48977160  .00000656  00000+0  13612-3 0  9997
2 40376  98.1277 151.3958 0001324  86.6795 273.4559 14.63370816443868
KOMPSAT-3A              
1 40536U 15014A   23144.45114308  .00005803  00000+0  31647-3 0  9998
2 40536  97.5716  88.4928 0003520 169.5496 190.5810 15.14758882450590
SENTINEL-2A             
1 40697U 15028A   23144.52223730  .00000191  00000+0  89603-4 0  9990
2 40697  98.5700 219.3752 0001216 101.4501 258.6818 14.30815045413623
GAOFEN 8                
1 40701U 15030A   23144.51663299  .00009979  00000+0  42426-3 0  9990
2 40701  97.6076 287.6392 0005469 269.8970  90.1639 15.23226485440319
CARBONITE 1 (CBNT-1)    
1 40718U 15032D   23144.43084048  .00001712  00000+0  25200-3 0  9998
2 40718  97.6945 358.2923 0016109 356.3783   3.7308 14.76531592423717
YAOGAN 27               
1 40878U 15040A   23144.51435263 -.00000055  00000+0 -33019-4 0  9991
2 40878 100.0956 166.3696 0007623 278.9951  81.0300 13.15993266371891
GAOFEN 9-01             
1 40894U 15047A   23144.46807450  .00000915  00000+0  13453-3 0  9993
2 40894  97.7755 208.1617 0032446 184.4862 175.6063 14.77404454414506
LAPAN-A2                
1 40931U 15052B   23144.19090304  .00001231  00000+0  80804-4 0  9990
2 40931   5.9997 257.8042 0013465 313.5280  46.3729 14.77216383413794
YAOGAN 28               
1 41026U 15064A   23144.52090233  .00007835  00000+0  33483-3 0  9993
2 41026  97.6014 295.5193 0004950  71.1841 288.9932 15.23129478420162
YAOGAN 29               
1 41038U 15069A   23144.53149378  .00000582  00000+0  81520-4 0  9995
2 41038  98.0626 151.5741 0002507  85.9347 274.2152 14.81320182404778
KENT RIDGE 1            
1 41167U 15077B   23144.48443501  .00003375  00000+0  15293-3 0  9992
2 41167  14.9802 240.6633 0010634  57.0716 303.0626 15.11892833410904
TELEOS 1                
1 41169U 15077D   23143.77625261  .00009655  00000+0  41914-3 0  9996
2 41169  14.9792 198.9520 0008674 131.9089 228.1972 15.18493648411214
GAOFEN 4                
1 41194U 15083A   23144.51364942 -.00000331  00000+0  00000+0 0  9990
2 41194   0.0915  79.3680 0004266 117.7493 335.3458  1.00273820 27260
JASON-3                 
1 41240U 16002A   23144.04341755 -.00000027  00000+0  14841-3 0  9993
2 41240  66.0415 301.6617 0007641 271.5925  88.4215 12.80931716343677
SENTINEL-3A             
1 41335U 16011A   23144.52292082  .00000175  00000+0  90372-4 0  9996
2 41335  98.6221 211.9211 0001332  99.5831 260.5500 14.26736416378407
ZIYUAN 3-2 (ZY 3-2)     
1 41556U 16033A   23144.49797441  .00007441  00000+0  33401-3 0  9992
2 41556  97.4940 217.6145 0000461 245.8713 114.2474 15.21472862387754
NUSAT-1 (FRESCO)        
1 41557U 16033B   23144.51684131  .00057014  00000+0  79208-3 0  9993
2 41557  97.3871 251.5175 0007732 214.9407 145.1341 15.56798981389942
NUSAT-2 (BATATA)        
1 41558U 16033C   23144.48946450  .00065505  00000+0  80342-3 0  9990
2 41558  97.4152 259.3753 0007821 209.3566 150.7253 15.60088869390271
CARTOSAT-2C             
1 41599U 16040A   23144.44024819  .00006719  00000+0  32013-3 0  9999
2 41599  97.4370 205.0577 0014107  79.0000 281.2821 15.19360995383708
SKYSAT-C1               
1 41601U 16040C   23144.41851216  .00014829  00000+0  39879-3 0  9997
2 41601  97.1125 215.8350 0006958  97.2504 262.9532 15.37954915386430
LAPAN-A3                
1 41603U 16040E   23144.52836862  .00002668  00000+0  11832-3 0  9998
2 41603  97.1673 171.1860 0013917  46.3092 313.9296 15.22340024383895
BIROS                   
1 41604U 16040F   23144.40809528  .00007380  00000+0  26394-3 0  9990
2 41604  97.1645 180.9307 0010527  14.8503 345.3044 15.29031810384461
GAOFEN 3                
1 41727U 16049A   23144.53038028  .00000078  00000+0  36980-4 0  9998
2 41727  98.4067 152.9039 0001492  65.6926 294.4420 14.42214229357254
SKYSAT-C4               
1 41771U 16058B   23144.15652527  .00015457  00000+0  38913-3 0  9995
2 41771  97.0674 203.6880 0008905  70.1234 290.0972 15.39958224373359
SKYSAT-C5               
1 41772U 16058C   23144.48710109  .00009236  00000+0  30040-3 0  9994
2 41772  97.2146 203.8418 0002842  88.0738 272.0830 15.32093786371870
SKYSAT-C2               
1 41773U 16058D   23143.97388299  .00013081  00000+0  35350-3 0  9991
2 41773  97.0690 203.8837 0004644  50.2106 309.9548 15.37842938373346
SKYSAT-C3               
1 41774U 16058E   23143.93022414  .00014765  00000+0  35333-3 0  9993
2 41774  97.0686 206.3518 0001347 113.8707 246.2682 15.41547845373500
ALSAT 1B                
1 41785U 16059C   23144.54320170  .00000467  00000+0  84909-4 0  9992
2 41785  97.8621 182.6234 0008871 210.4614 149.6079 14.70403677355938
PATHFINDER 1            
1 41787U 16059E   23144.07665128  .00000883  00000+0  17395-3 0  9993
2 41787  97.8681 178.8530 0030442 165.7701 194.4367 14.64565651355583
SCATSAT 1               
1 41790U 16059H   23144.13166158  .00000374  00000+0  10528-3 0  9999
2 41790  98.2717 188.4712 0003756 227.0005 133.0875 14.51155676352474
GOKTURK 1A              
1 41875U 16073A   23144.47386214  .00000129  00000+0  34512-4 0  9991
2 41875  98.1398  39.3345 0001448  86.2539 273.8829 14.62740767345131
RESOURCESAT-2A          
1 41877U 16074A   23144.52186846  .00000208  00000+0  11447-3 0  9998
2 41877  98.6822 220.0057 0002146  79.9964 280.1455 14.21649134335222
CARTOSAT-2D             
1 41948U 17008A   23144.14173940  .00005748  00000+0  27518-3 0  9994
2 41948  97.4151 203.8384 0006168 198.7958 161.3049 15.19327962347521
